CTC2_L_00151001-01
1 54169U 26499BO  26037.47791667  .00000000  00000+0  00000-0 0  9999
2 54169  40.0000   0.0000 0000000   0.0000   0.0000 14.98994923    10
CTC2_L_00151001-02
1 54170U 22361IJ  26037.47791667  .00000000  00000+0  00000-0 0  9995
2 54170  40.0000   0.0000 0000000   0.0000  90.0000 14.98994923    11
CTC2_L_00151001-03
1 54171U 24731AM  26037.47791667  .00000000  00000+0  00000-0 0  9999
2 54171  40.0000   0.0000 0000000   0.0000 180.0000 14.98994923    12
CTC2_L_00151001-04
1 54172U 24223US  26037.47791667  .00000000  00000+0  00000-0 0  9996
2 54172  40.0000   0.0000 0000000   0.0000 270.0000 14.98994923    13
CTC2_L_00151002-01
1 54173U 25459YW  26037.47791667  .00000000  00000+0  00000-0 0  9999
2 54173  40.0000  12.0000 0000000   0.0000  12.0000 14.98994923    11
CTC2_L_00151002-02
1 54174U 24870PH  26037.47791667  .00000000  00000+0  00000-0 0  9996
2 54174  40.0000  12.0000 0000000   0.0000 102.0000 14.98994923    12
CTC2_L_00151002-03
1 54175U 24513AQ  26037.47791667  .00000000  00000+0  00000-0 0  9991
2 54175  40.0000  12.0000 0000000   0.0000 192.0000 14.98994923    12
CTC2_L_00151002-04
1 54176U 23373WB  26037.47791667  .00000000  00000+0  00000-0 0  9995
2 54176  40.0000  12.0000 0000000   0.0000 282.0000 14.98994923    13
CTC2_L_00151003-01
1 54177U 24045TE  26037.47791667  .00000000  00000+0  00000-0 0  9993
2 54177  40.0000  24.0000 0000000   0.0000  24.0000 14.98994923    11
CTC2_L_00151003-02
1 54178U 24628DW  26037.47791667  .00000000  00000+0  00000-0 0  9991
2 54178  40.0000  24.0000 0000000   0.0000 114.0000 14.98994923    12
CTC2_L_00151003-03
1 54179U 25673KE  26037.47791667  .00000000  00000+0  00000-0 0  9993
2 54179  40.0000  24.0000 0000000   0.0000 204.0000 14.98994923    13
CTC2_L_00151003-04
1 54180U 23370WE  26037.47791667  .00000000  00000+0  00000-0 0  9997
2 54180  40.0000  24.0000 0000000   0.0000 294.0000 14.98994923    14
CTC2_L_00151004-01
1 54181U 25767NW  26037.47791667  .00000000  00000+0  00000-0 0  9990
2 54181  40.0000  36.0000 0000000   0.0000  36.0000 14.98994923    12
CTC2_L_00151004-02
1 54182U 26553ZW  26037.47791667  .00000000  00000+0  00000-0 0  9995
2 54182  40.0000  36.0000 0000000   0.0000 126.0000 14.98994923    13
CTC2_L_00151004-03
1 54183U 25803TE  26037.47791667  .00000000  00000+0  00000-0 0  9993
2 54183  40.0000  36.0000 0000000   0.0000 216.0000 14.98994923    14
CTC2_L_00151004-04
1 54184U 22143JB  26037.47791667  .00000000  00000+0  00000-0 0  9998
2 54184  40.0000  36.0000 0000000   0.0000 306.0000 14.98994923    15
CTC2_L_00151005-01
1 54185U 22329EP  26037.47791667  .00000000  00000+0  00000-0 0  9995
2 54185  40.0000  48.0000 0000000   0.0000  48.0000 14.98994923    12
CTC2_L_00151005-02
1 54186U 23993XC  26037.47791667  .00000000  00000+0  00000-0 0  9994
2 54186  40.0000  48.0000 0000000   0.0000 138.0000 14.98994923    13
CTC2_L_00151005-03
1 54187U 26109IR  26037.47791667  .00000000  00000+0  00000-0 0  9997
2 54187  40.0000  48.0000 0000000   0.0000 228.0000 14.98994923    14
CTC2_L_00151005-04
1 54188U 24846J   26037.47791667  .00000000  00000+0  00000-0 0  9994
2 54188  40.0000  48.0000 0000000   0.0000 318.0000 14.98994923    15
CTC2_L_00151006-01
1 54189U 24801ER  26037.47791667  .00000000  00000+0  00000-0 0  9996
2 54189  40.0000  60.0000 0000000   0.0000  60.0000 14.98994923    14
CTC2_L_00151006-02
1 54190U 26626HN  26037.47791667  .00000000  00000+0  00000-0 0  9995
2 54190  40.0000  60.0000 0000000   0.0000 150.0000 14.98994923    16
CTC2_L_00151006-03
1 54191U 23743ON  26037.47791667  .00000000  00000+0  00000-0 0  9993
2 54191  40.0000  60.0000 0000000   0.0000 240.0000 14.98994923    17
CTC2_L_00151006-04
1 54192U 24355VZ  26037.47791667  .00000000  00000+0  00000-0 0  9994
2 54192  40.0000  60.0000 0000000   0.0000 330.0000 14.98994923    18
CTC2_L_00151007-01
1 54193U 22479MR  26037.47791667  .00000000  00000+0  00000-0 0  9990
2 54193  40.0000  72.0000 0000000   0.0000  72.0000 14.98994923    15
CTC2_L_00151007-02
1 54194U 23015WA  26037.47791667  .00000000  00000+0  00000-0 0  9998
2 54194  40.0000  72.0000 0000000   0.0000 162.0000 14.98994923    16
CTC2_L_00151007-03
1 54195U 22186AV  26037.47791667  .00000000  00000+0  00000-0 0  9997
2 54195  40.0000  72.0000 0000000   0.0000 252.0000 14.98994923    17
CTC2_L_00151007-04
1 54196U 23513YX  26037.47791667  .00000000  00000+0  00000-0 0  9993
2 54196  40.0000  72.0000 0000000   0.0000 342.0000 14.98994923    18
CTC2_L_00151008-01
1 54197U 22878UU  26037.47791667  .00000000  00000+0  00000-0 0  9997
2 54197  40.0000  84.0000 0000000   0.0000  84.0000 14.98994923    15
CTC2_L_00151008-02
1 54198U 26477FJ  26037.47791667  .00000000  00000+0  00000-0 0  9997
2 54198  40.0000  84.0000 0000000   0.0000 174.0000 14.98994923    16
CTC2_L_00151008-03
1 54199U 25364ZZ  26037.47791667  .00000000  00000+0  00000-0 0  9992
2 54199  40.0000  84.0000 0000000   0.0000 264.0000 14.98994923    17
CTC2_L_00151008-04
1 54200U 23963PP  26037.47791667  .00000000  00000+0  00000-0 0  9998
2 54200  40.0000  84.0000 0000000   0.0000 354.0000 14.98994923    10
CTC2_L_00151009-01
1 54201U 22952JB  26037.47791667  .00000000  00000+0  00000-0 0  9996
2 54201  40.0000  96.0000 0000000   0.0000  96.0000 14.98994923    17
CTC2_L_00151009-02
1 54202U 23065UU  26037.47791667  .00000000  00000+0  00000-0 0  9993
2 54202  40.0000  96.0000 0000000   0.0000 186.0000 14.98994923    18
CTC2_L_00151009-03
1 54203U 23317DR  26037.47791667  .00000000  00000+0  00000-0 0  9994
2 54203  40.0000  96.0000 0000000   0.0000 276.0000 14.98994923    19
CTC2_L_00151009-04
1 54204U 26284GP  26037.47791667  .00000000  00000+0  00000-0 0  9991
2 54204  40.0000  96.0000 0000000   0.0000   6.0000 14.98994923    11
CTC2_L_00151010-01
1 54205U 24963IK  26037.47791667  .00000000  00000+0  00000-0 0  9994
2 54205  40.0000 108.0000 0000000   0.0000 108.0000 14.98994923    19
CTC2_L_00151010-02
1 54206U 26299QP  26037.47791667  .00000000  00000+0  00000-0 0  9999
2 54206  40.0000 108.0000 0000000   0.0000 198.0000 14.98994923    19
CTC2_L_00151010-03
1 54207U 25280ZK  26037.47791667  .00000000  00000+0  00000-0 0  9999
2 54207  40.0000 108.0000 0000000   0.0000 288.0000 14.98994923    10
CTC2_L_00151010-04
1 54208U 25010FC  26037.47791667  .00000000  00000+0  00000-0 0  9991
2 54208  40.0000 108.0000 0000000   0.0000  18.0000 14.98994923    12
CTC2_L_00151011-01
1 54209U 23214JS  26037.47791667  .00000000  00000+0  00000-0 0  9996
2 54209  40.0000 120.0000 0000000   0.0000 120.0000 14.98994923    11
CTC2_L_00151011-02
1 54210U 24067HD  26037.47791667  .00000000  00000+0  00000-0 0  9995
2 54210  40.0000 120.0000 0000000   0.0000 210.0000 14.98994923    13
CTC2_L_00151011-03
1 54211U 25413IM  26037.47791667  .00000000  00000+0  00000-0 0  9992
2 54211  40.0000 120.0000 0000000   0.0000 300.0000 14.98994923    14
CTC2_L_00151011-04
1 54212U 23370IX  26037.47791667  .00000000  00000+0  00000-0 0  9993
2 54212  40.0000 120.0000 0000000   0.0000  30.0000 14.98994923    15
CTC2_L_00151012-01
1 54213U 26631PK  26037.47791667  .00000000  00000+0  00000-0 0  9997
2 54213  40.0000 132.0000 0000000   0.0000 132.0000 14.98994923    12
CTC2_L_00151012-02
1 54214U 25760UG  26037.47791667  .00000000  00000+0  00000-0 0  9990
2 54214  40.0000 132.0000 0000000   0.0000 222.0000 14.98994923    13
CTC2_L_00151012-03
1 54215U 22725QM  26037.47791667  .00000000  00000+0  00000-0 0  9999
2 54215  40.0000 132.0000 0000000   0.0000 312.0000 14.98994923    14
CTC2_L_00151012-04
1 54216U 24709JA  26037.47791667  .00000000  00000+0  00000-0 0  9994
2 54216  40.0000 132.0000 0000000   0.0000  42.0000 14.98994923    15
CTC2_L_00151013-01
1 54217U 23658IY  26037.47791667  .00000000  00000+0  00000-0 0  9997
2 54217  40.0000 144.0000 0000000   0.0000 144.0000 14.98994923    12
CTC2_L_00151013-02
1 54218U 25122OK  26037.47791667  .00000000  00000+0  00000-0 0  9996
2 54218  40.0000 144.0000 0000000   0.0000 234.0000 14.98994923    13
CTC2_L_00151013-03
1 54219U 24795GZ  26037.47791667  .00000000  00000+0  00000-0 0  9992
2 54219  40.0000 144.0000 0000000   0.0000 324.0000 14.98994923    14
CTC2_L_00151013-04
1 54220U 25967OC  26037.47791667  .00000000  00000+0  00000-0 0  9996
2 54220  40.0000 144.0000 0000000   0.0000  54.0000 14.98994923    16
CTC2_L_00151014-01
1 54221U 24955HW  26037.47791667  .00000000  00000+0  00000-0 0  9993
2 54221  40.0000 156.0000 0000000   0.0000 156.0000 14.98994923    13
CTC2_L_00151014-02
1 54222U 26236DA  26037.47791667  .00000000  00000+0  00000-0 0  9998
2 54222  40.0000 156.0000 0000000   0.0000 246.0000 14.98994923    14
CTC2_L_00151014-03
1 54223U 23631MM  26037.47791667  .00000000  00000+0  00000-0 0  9995
2 54223  40.0000 156.0000 0000000   0.0000 336.0000 14.98994923    15
CTC2_L_00151014-04
1 54224U 23315FB  26037.47791667  .00000000  00000+0  00000-0 0  9995
2 54224  40.0000 156.0000 0000000   0.0000  66.0000 14.98994923    16
CTC2_L_00151015-01
1 54225U 23347RA  26037.47791667  .00000000  00000+0  00000-0 0  9991
2 54225  40.0000 168.0000 0000000   0.0000 168.0000 14.98994923    13
CTC2_L_00151015-02
1 54226U 23123SC  26037.47791667  .00000000  00000+0  00000-0 0  9994
2 54226  40.0000 168.0000 0000000   0.0000 258.0000 14.98994923    14
CTC2_L_00151015-03
1 54227U 25992OS  26037.47791667  .00000000  00000+0  00000-0 0  9991
2 54227  40.0000 168.0000 0000000   0.0000 348.0000 14.98994923    15
CTC2_L_00151015-04
1 54228U 23113WQ  26037.47791667  .00000000  00000+0  00000-0 0  9995
2 54228  40.0000 168.0000 0000000   0.0000  78.0000 14.98994923    16
CTC2_L_00151016-01
1 54229U 23562CK  26037.47791667  .00000000  00000+0  00000-0 0  9994
2 54229  40.0000 180.0000 0000000   0.0000 180.0000 14.98994923    15
CTC2_L_00151016-02
1 54230U 25700ZZ  26037.47791667  .00000000  00000+0  00000-0 0  9992
2 54230  40.0000 180.0000 0000000   0.0000 270.0000 14.98994923    17
